CCSDS_OMM_VERS = 2.0
CREATION_DATE  = 
ORIGINATOR     = 

OBJECT_NAME    = COSMOS 1933
OBJECT_ID      = 1988-020A
CENTER_NAME    = EARTH
REF_FRAME      = TEME
TIME_SYSTEM    = UTC
MEAN_ELEMENT_THEORY = SGP/SGP4

EPOCH          = 2025-12-04T12:11:31.687296
MEAN_MOTION    = 15.17003840
ECCENTRICITY   = .00051905
INCLINATION    = 82.5125
RA_OF_ASC_NODE = 345.0125
ARG_OF_PERICENTER = 149.1417
MEAN_ANOMALY   = 211.0122

EPHEMERIS_TYPE = 0
CLASSIFICATION_TYPE = U
NORAD_CAT_ID   = 18958
ELEMENT_SET_NO = 999
REV_AT_EPOCH   = 3579
BSTAR          = .45468185E-3
MEAN_MOTION_DOT = .9017E-4
MEAN_MOTION_DDOT = 0

CCSDS_OMM_VERS = 2.0
CREATION_DATE  = 
ORIGINATOR     = 

OBJECT_NAME    = SL-3 R/B
OBJECT_ID      = 1988-032B
CENTER_NAME    = EARTH
REF_FRAME      = TEME
TIME_SYSTEM    = UTC
MEAN_ELEMENT_THEORY = SGP/SGP4

EPOCH          = 2025-12-04T15:00:36.641376
MEAN_MOTION    = 15.18614403
ECCENTRICITY   = .00258362
INCLINATION    = 97.5066
RA_OF_ASC_NODE = 317.4030
ARG_OF_PERICENTER = 201.5878
MEAN_ANOMALY   = 158.4269

EPHEMERIS_TYPE = 0
CLASSIFICATION_TYPE = U
NORAD_CAT_ID   = 19046
ELEMENT_SET_NO = 999
REV_AT_EPOCH   = 3767
BSTAR          = .53314816E-3
MEAN_MOTION_DOT = .11067E-3
MEAN_MOTION_DDOT = 0

CCSDS_OMM_VERS = 2.0
CREATION_DATE  = 
ORIGINATOR     = 

OBJECT_NAME    = SL-16 R/B
OBJECT_ID      = 1988-039B
CENTER_NAME    = EARTH
REF_FRAME      = TEME
TIME_SYSTEM    = UTC
MEAN_ELEMENT_THEORY = SGP/SGP4

EPOCH          = 2025-12-04T12:03:55.453824
MEAN_MOTION    = 14.19594180
ECCENTRICITY   = .00199741
INCLINATION    = 71.0149
RA_OF_ASC_NODE = 269.8141
ARG_OF_PERICENTER = 130.2045
MEAN_ANOMALY   = 230.0832

EPHEMERIS_TYPE = 0
CLASSIFICATION_TYPE = U
NORAD_CAT_ID   = 19120
ELEMENT_SET_NO = 999
REV_AT_EPOCH   = 94487
BSTAR          = .11838027E-3
MEAN_MOTION_DOT = .202E-5
MEAN_MOTION_DDOT = 0

CCSDS_OMM_VERS = 2.0
CREATION_DATE  = 
ORIGINATOR     = 

OBJECT_NAME    = COSMOS 1953
OBJECT_ID      = 1988-050A
CENTER_NAME    = EARTH
REF_FRAME      = TEME
TIME_SYSTEM    = UTC
MEAN_ELEMENT_THEORY = SGP/SGP4

EPOCH          = 2025-12-04T12:17:52.616256
MEAN_MOTION    = 15.26790261
ECCENTRICITY   = .00138152
INCLINATION    = 82.5101
RA_OF_ASC_NODE = 253.8346
ARG_OF_PERICENTER = 96.4113
MEAN_ANOMALY   = 263.8699

EPHEMERIS_TYPE = 0
CLASSIFICATION_TYPE = U
NORAD_CAT_ID   = 19210
ELEMENT_SET_NO = 999
REV_AT_EPOCH   = 2325
BSTAR          = .52568839E-3
MEAN_MOTION_DOT = .13917E-3
MEAN_MOTION_DDOT = 0

CCSDS_OMM_VERS = 2.0
CREATION_DATE  = 
ORIGINATOR     = 

OBJECT_NAME    = SL-8 R/B
OBJECT_ID      = 1988-053B
CENTER_NAME    = EARTH
REF_FRAME      = TEME
TIME_SYSTEM    = UTC
MEAN_ELEMENT_THEORY = SGP/SGP4

EPOCH          = 2025-12-04T15:15:19.841184
MEAN_MOTION    = 14.38851350
ECCENTRICITY   = .0019181
INCLINATION    = 74.0475
RA_OF_ASC_NODE = 287.6556
ARG_OF_PERICENTER = 134.7355
MEAN_ANOMALY   = 38.3041

EPHEMERIS_TYPE = 0
CLASSIFICATION_TYPE = U
NORAD_CAT_ID   = 19257
ELEMENT_SET_NO = 999
REV_AT_EPOCH   = 96292
BSTAR          = .17036093E-3
MEAN_MOTION_DOT = .499E-5
MEAN_MOTION_DDOT = 0

CCSDS_OMM_VERS = 2.0
CREATION_DATE  = 
ORIGINATOR     = 

OBJECT_NAME    = COSMOS 1975
OBJECT_ID      = 1988-093A
CENTER_NAME    = EARTH
REF_FRAME      = TEME
TIME_SYSTEM    = UTC
MEAN_ELEMENT_THEORY = SGP/SGP4

EPOCH          = 2025-12-04T15:38:43.925856
MEAN_MOTION    = 15.26295750
ECCENTRICITY   = .00123023
INCLINATION    = 82.5213
RA_OF_ASC_NODE = 212.9238
ARG_OF_PERICENTER = 138.0686
MEAN_ANOMALY   = 222.1496

EPHEMERIS_TYPE = 0
CLASSIFICATION_TYPE = U
NORAD_CAT_ID   = 19573
ELEMENT_SET_NO = 999
REV_AT_EPOCH   = 490
BSTAR          = .67286619E-3
MEAN_MOTION_DOT = .17539E-3
MEAN_MOTION_DDOT = 0

CCSDS_OMM_VERS = 2.0
CREATION_DATE  = 
ORIGINATOR     = 

OBJECT_NAME    = SL-14 R/B
OBJECT_ID      = 1988-093B
CENTER_NAME    = EARTH
REF_FRAME      = TEME
TIME_SYSTEM    = UTC
MEAN_ELEMENT_THEORY = SGP/SGP4

EPOCH          = 2025-12-04T16:23:16.734912
MEAN_MOTION    = 14.85535594
ECCENTRICITY   = .00206213
INCLINATION    = 82.5298
RA_OF_ASC_NODE = 131.2280
ARG_OF_PERICENTER = 356.6867
MEAN_ANOMALY   = 14.0488

EPHEMERIS_TYPE = 0
CLASSIFICATION_TYPE = U
NORAD_CAT_ID   = 19574
ELEMENT_SET_NO = 999
REV_AT_EPOCH   = 98693
BSTAR          = .1076026E-3
MEAN_MOTION_DOT = .957E-5
MEAN_MOTION_DDOT = 0

CCSDS_OMM_VERS = 2.0
CREATION_DATE  = 
ORIGINATOR     = 

OBJECT_NAME    = SL-16 R/B
OBJECT_ID      = 1988-102B
CENTER_NAME    = EARTH
REF_FRAME      = TEME
TIME_SYSTEM    = UTC
MEAN_ELEMENT_THEORY = SGP/SGP4

EPOCH          = 2025-12-04T11:26:18.230496
MEAN_MOTION    = 14.16137344
ECCENTRICITY   = .00133489
INCLINATION    = 71.0002
RA_OF_ASC_NODE = 351.8303
ARG_OF_PERICENTER = 165.7430
MEAN_ANOMALY   = 194.4073

EPHEMERIS_TYPE = 0
CLASSIFICATION_TYPE = U
NORAD_CAT_ID   = 19650
ELEMENT_SET_NO = 999
REV_AT_EPOCH   = 91341
BSTAR          = -.34525377E-4
MEAN_MOTION_DOT = -.116E-5
MEAN_MOTION_DDOT = 0

CCSDS_OMM_VERS = 2.0
CREATION_DATE  = 
ORIGINATOR     = 

OBJECT_NAME    = INTERCOSMOS 24
OBJECT_ID      = 1989-080A
CENTER_NAME    = EARTH
REF_FRAME      = TEME
TIME_SYSTEM    = UTC
MEAN_ELEMENT_THEORY = SGP/SGP4

EPOCH          = 2025-12-04T15:22:10.713792
MEAN_MOTION    = 12.59417027
ECCENTRICITY   = .11887445
INCLINATION    = 82.6045
RA_OF_ASC_NODE = 166.2190
ARG_OF_PERICENTER = 153.3031
MEAN_ANOMALY   = 213.4683

EPHEMERIS_TYPE = 0
CLASSIFICATION_TYPE = U
NORAD_CAT_ID   = 20261
ELEMENT_SET_NO = 999
REV_AT_EPOCH   = 65483
BSTAR          = .43154459E-3
MEAN_MOTION_DOT = .1484E-4
MEAN_MOTION_DDOT = 0

CCSDS_OMM_VERS = 2.0
CREATION_DATE  = 
ORIGINATOR     = 

OBJECT_NAME    = SL-14 R/B
OBJECT_ID      = 1989-080C
CENTER_NAME    = EARTH
REF_FRAME      = TEME
TIME_SYSTEM    = UTC
MEAN_ELEMENT_THEORY = SGP/SGP4

EPOCH          = 2025-12-04T10:10:03.693504
MEAN_MOTION    = 12.50403503
ECCENTRICITY   = .12307893
INCLINATION    = 82.5937
RA_OF_ASC_NODE = 234.3580
ARG_OF_PERICENTER = 42.5899
MEAN_ANOMALY   = 326.4270

EPHEMERIS_TYPE = 0
CLASSIFICATION_TYPE = U
NORAD_CAT_ID   = 20262
ELEMENT_SET_NO = 999
REV_AT_EPOCH   = 64824
BSTAR          = .23130043E-3
MEAN_MOTION_DOT = .789E-5
MEAN_MOTION_DDOT = 0

CCSDS_OMM_VERS = 2.0
CREATION_DATE  = 
ORIGINATOR     = 

OBJECT_NAME    = DELTA 1 R/B
OBJECT_ID      = 1989-089B
CENTER_NAME    = EARTH
REF_FRAME      = TEME
TIME_SYSTEM    = UTC
MEAN_ELEMENT_THEORY = SGP/SGP4

EPOCH          = 2025-12-04T15:18:50.271840
MEAN_MOTION    = 14.50562351
ECCENTRICITY   = .00705092
INCLINATION    = 97.0757
RA_OF_ASC_NODE = 196.1593
ARG_OF_PERICENTER = 63.4447
MEAN_ANOMALY   = 297.3956

EPHEMERIS_TYPE = 0
CLASSIFICATION_TYPE = U
NORAD_CAT_ID   = 20323
ELEMENT_SET_NO = 999
REV_AT_EPOCH   = 88195
BSTAR          = .18358314E-3
MEAN_MOTION_DOT = .708E-5
MEAN_MOTION_DDOT = 0

CCSDS_OMM_VERS = 2.0
CREATION_DATE  = 
ORIGINATOR     = 

OBJECT_NAME    = ARIANE 40 R/B
OBJECT_ID      = 1990-005H
CENTER_NAME    = EARTH
REF_FRAME      = TEME
TIME_SYSTEM    = UTC
MEAN_ELEMENT_THEORY = SGP/SGP4

EPOCH          = 2025-12-04T14:36:00.605376
MEAN_MOTION    = 14.39789271
ECCENTRICITY   = .00110538
INCLINATION    = 98.3256
RA_OF_ASC_NODE = 37.0157
ARG_OF_PERICENTER = 127.9795
MEAN_ANOMALY   = 232.2393

EPHEMERIS_TYPE = 0
CLASSIFICATION_TYPE = U
NORAD_CAT_ID   = 20443
ELEMENT_SET_NO = 999
REV_AT_EPOCH   = 87912
BSTAR          = .22776617E-3
MEAN_MOTION_DOT = .672E-5
MEAN_MOTION_DDOT = 0

