COSMOS 1933             
1 18958U 88020A   25338.50800564  .00009017  00000+0  45468-3 0  9994
2 18958  82.5125 345.0125 0005190 149.1417 211.0122 15.17003840 35790
SL-3 R/B                
1 19046U 88032B   25338.62542409  .00011067  00000+0  53315-3 0  9998
2 19046  97.5066 317.4030 0025836 201.5878 158.4269 15.18614403 37679
SL-16 R/B               
1 19120U 88039B   25338.50272516  .00000202  00000+0  11838-3 0  9997
2 19120  71.0149 269.8141 0019974 130.2045 230.0832 14.19594180944875
COSMOS 1953             
1 19210U 88050A   25338.51241454  .00013917  00000+0  52569-3 0  9991
2 19210  82.5101 253.8346 0013815  96.4113 263.8699 15.26790261 23259
SL-8 R/B                
1 19257U 88053B   25338.63564631  .00000499  00000+0  17036-3 0  9994
2 19257  74.0475 287.6556 0019181 134.7355  38.3041 14.38851350962925
COSMOS 1975             
1 19573U 88093A   25338.65189729  .00017539  00000+0  67287-3 0  9998
2 19573  82.5213 212.9238 0012302 138.0686 222.1496 15.26295750  4906
SL-14 R/B               
1 19574U 88093B   25338.68283258  .00000957  00000+0  10760-3 0  9994
2 19574  82.5298 131.2280 0020621 356.6867  14.0488 14.85535594986930
SL-16 R/B               
1 19650U 88102B   25338.47659989 -.00000116  00000+0 -34525-4 0  9990
2 19650  71.0002 351.8303 0013348 165.7430 194.4073 14.16137344913411
INTERCOSMOS 24          
1 20261U 89080A   25338.64040178  .00001484  00000+0  43154-3 0  9993
2 20261  82.6045 166.2190 1188744 153.3031 213.4683 12.59417027654833
SL-14 R/B               
1 20262U 89080C   25338.42365386  .00000789  00000+0  23130-3 0  9990
2 20262  82.5937 234.3580 1230789  42.5899 326.4270 12.50403503648241
DELTA 1 R/B             
1 20323U 89089B   25338.63808185  .00000708  00000+0  18358-3 0  9996
2 20323  97.0757 196.1593 0070509  63.4447 297.3956 14.50562351881954
ARIANE 40 R/B           
1 20443U 90005H   25338.60834034  .00000672  00000+0  22777-3 0  9998
2 20443  98.3256  37.0157 0011053 127.9795 232.2393 14.39789271879123
